#dP2021 12 18  0  0  0.00000000     289 d+D   IGS14 FIT AIUB
## 2188 518400.00000000   300.00000000 59566 0.0000000000000
+  116   G01G02G03G04G05G06G07G08G09G10G11G12G13G14G15G16G17
+        G18G19G20G21G22G23G24G25G26G27G28G29G30G31G32R01R02
+        R03R04R05R07R08R09R11R12R13R14R15R17R18R19R20R21R22
+        R24E01E02E03E04E05E07E08E09E11E12E13E14E15E18E19E21
+        E24E25E26E27E30E31E33E36C06C07C08C09C10C11C12C13C14
+        C16C19C20C21C22C23C24C25C26C27C28C29C30C32C33C34C35
+        C36C37C38C39C40C41C42C43C44C45C46J01J02J03  0  0  0
++         5  5  5  5  5  5  5  5  5  5  5  5  5  5  5  5  5
++         5  5  5  5  5  5  5  5  5  5  5  5  5  5  5  5  5
++         5  5  5  5  5  5  5  5  5  5  5  5  5  5  5  5  5
++         5  5  5  5  5  5  5  5  5  5  5  5  5  5  5  5  5
++         5  5  5  5  5  5  5  5 10  8  5  5  6  5  5  5  5
++         5  5  5  5  5  5  5  5  5  5  5  5  5  5  5  5  5
++         5  5  5  5  5  5  5  5  5  5  5  5  5  5  0  0  0
%c M  cc GPS ccc cccc cccc cccc cccc ccccc ccccc ccccc ccccc
%c cc cc ccc ccc cccc cccc cccc cccc ccccc ccccc ccccc ccccc
%f  1.2500000  1.025000000  0.00000000000  0.000000000000000
%f  0.0000000  0.000000000  0.00000000000  0.000000000000000
%i    0    0    0    0      0      0      0      0         0
%i    0    0    0    0      0      0      0      0         0
/* Center for Orbit Determination in Europe (CODE)                              
/* MGEX orbits and clocks for year-day 2021-3520                                
/* Middle day of a 3-day long-arc multi-GNSS solution                           
/* Systems considered: GPS/GLONASS/Galileo/BeiDou/QZSS                          
/* Product reference - DOI 10.7892/boris.75882.3                                
/* PCV:IGS14      OL/AL:FES2014b NONE     YN ORB:CoN CLK:CoN                    
*  2021 12 18  6 25  0.00000000
PG01  22519.729559  14432.693524    -97.520914    481.053046
PG02  -7541.291349 -18264.763159  18363.273729   -646.025523
PG03  12713.304601  13077.992604  19240.912335    -45.449304
PG04  19241.293456   4404.024418  17808.322839   -198.630118
PG05  -6075.893676 -24426.484888  -8396.849381    -64.796014
PG06   8696.536176 -11882.444886  22174.772653    145.796636
PG07  22685.055331   2863.056840 -13544.689984    292.139569
PG08   9601.160646  11886.617691 -21759.171208    -48.527436
PG09  24160.037057  -6035.469398   9206.161665   -360.209858
PG10 -11654.271870  17106.057547 -16342.038278   -271.412687
PG11  -4661.387294 -18789.526020  18187.582417     11.887124
PG12 -10803.634837 -15904.165406  18126.305589   -142.440020
PG13   -792.324067 -15595.436866 -21619.545099    231.225675
PG14  12796.428644 -16543.658971 -16338.173698    -56.992971
PG15 -11757.624132 -11271.688470 -21409.953344    -98.318115
PG16    985.257621  25660.415373  -5989.836697   -442.100302
PG17  22328.422642 -13757.269736   4746.633400    549.051300
PG18 -21938.462235  -2082.260200 -14901.974836    277.503704
PG19  17550.076842 -15711.846799  11836.007370     93.689144
PG20  -1153.001725 -26528.424525   2807.642943    517.592177
PG21  19423.309902  16388.886529  -7997.640525    154.011465
PG22  11304.714150  20244.231472  13313.928632   -438.756453
PG23 -14796.909954   5279.987667 -21420.879513     20.658241
PG24 -21547.941287 -15245.243104  -4822.030365    275.170161
PG25 -14953.305965  -3404.659576  21434.305354    257.450661
PG26  -5441.579246  24521.201211   8078.343111    166.053019
PG27  -1778.378052  16817.386056 -20564.503980      7.056895
PG28   9514.208732 -22737.121383  -9647.201777    440.818283
PG29 -23383.478116   1207.490768  12555.629235   -455.489104
PG30  16716.626632  -6377.049099 -19631.458060   -500.158630
PG31  -7104.437831  13573.103539  21557.889204   -155.585492
PG32 -19263.154050  16558.878983   7543.065543    -36.787547
PR01  -7173.315766  -8965.278424 -22781.860844 999999.999999
PR02 -16648.183935   9775.971251 -16597.515777    503.630345
PR03 -14943.119013  20623.925804   -599.626846     48.324218
PR04  -5075.199162  19619.246197  15503.878438    119.335639
PR05   7652.971467   7828.098750  23042.718728     84.375214
PR07  14773.804057 -20828.544402      0.908274    -39.136974
PR08   4981.737205 -19672.141624 -15424.902030    -62.602612
PR09  12965.501914   2053.685502 -21868.184065     29.320574
PR11  -7159.189440 -23245.240028  -7662.968905     48.732821
PR12 -14200.396837 -18312.504704  10713.348910    287.442289
PR13 -13036.470292  -3197.435254  21674.755799    -15.765836
PR14  -3804.719003  14974.914385  20309.092956     72.206036
PR15   7195.885875  23451.128105   7005.959149     99.503183
PR17 -14820.041712   7411.379556 -19393.715035    484.557885
PR18   3120.607217  10677.770356 -22937.294212    100.862165
PR19  18331.971088   9178.437093 -15166.044215   -171.114146
PR20  25125.038035   1384.729093   4318.345569    -61.417728
PR21  13490.080632  -7767.614318  20204.646938   -263.088892
PR22  -3965.147952 -10676.415886  22806.118359   -152.204343
PR24 -25030.716767   -453.930953  -4914.463477     71.679142
PE01  -1804.000195  28606.968543   7362.440669   -540.410788
PE02   1693.884385 -28671.254744  -7212.482503    267.612265
PE03   9907.672024 -22232.536001 -16847.491569   -507.547419
PE04   9577.943957  14164.905678  24159.326940   -923.232920
PE05  23952.070717 -17386.350306    513.238114   -225.605889
PE07 -23860.031890   2475.457275 -17348.157555   -618.803185
PE08  -9944.020276 -13726.467189 -24273.162093   5887.009010
PE09  23861.775970  -2836.855109  17272.631485   5426.102300
PE11  27968.999802   7711.402138   5894.286103   4868.644280
PE12  19524.737589  17772.343615 -13388.733776   4855.237060
PE13 -27979.900269  -8069.637150  -5299.239325    424.788230
PE14 -11034.404127  23188.833711 -19884.742601  -1678.584860
PE15 -19485.425254 -17711.732520  13532.862015    774.617755
PE18   8787.748367 -16590.850734  14056.658328  -1846.532130
PE19 -12282.703210  22280.848568  15120.628104    454.989468
PE21 -12611.595301  16289.531878  21252.062966   -705.947802
PE24  16741.228243   7395.201534 -23267.533414  -1285.968140
PE25  12707.968367 -16076.311617 -21357.809574   -557.246638
PE26 -19235.286461   7047.668218 -21358.513803   -582.879619
PE27 -16795.954447  -6063.635781  23615.046694   -189.357351
PE30 -10377.921257 -25433.155399  11051.525976   -118.857851
PE31  11061.168236  24653.965266 -12061.945933   -489.512855
PE33   -449.122707  16874.278884 -24304.162169   -461.322270
PE36  19980.081303  -6274.948214  20929.222725   -305.420294
PC06 -12046.650027  24451.776836  32094.064741    654.266488
PC07 -12061.010848  40439.983153  -1699.072418    108.410956
PC08   2833.150406  30884.374044 -28485.470089    -13.308588
PC09  -4479.207562  24698.518934  34144.189914   -358.079320
PC10  -6498.281596  41069.000844  -8067.025282    137.672916
PC11 -17515.452002 -11176.401545  18719.574488   -326.384760
PC12   2400.017628 -15469.543519  23143.647194   -427.805275
PC13   6343.246844  33151.431197 -24959.893893   -174.572174
PC14  -8374.182730 -16476.477244 -20877.179130    493.681700
PC16 -17922.436425  23223.311388  30329.477739     27.559820
PC19  14283.133372   6833.920812  22997.761921    921.217111
PC20   2366.872470  22330.457762  16589.442484   -795.628471
PC21  11730.563933 -25311.900678    182.653176   -949.113283
PC22  18398.984320 -13186.863567  16302.036717   -965.537956
PC23 -17396.961648   2288.277606  21702.047924   -963.399115
PC24 -10966.419552 -24659.493322  -7179.539725   -950.872457
PC25 -20848.744584 -14859.943688  11124.506298   -808.355126
PC26   3096.808480 -19551.246082 -19696.889486    806.243443
PC27 -12711.523587  14815.798338 -19950.119671    646.940080
PC28 -26507.441949   6266.019665  -6078.223181     10.178765
PC29  24917.399961   5116.512560 -11479.553353    489.111750
PC30   8309.452872  14598.260489 -22287.882007    488.990905
PC32 -11564.040219  25397.898589   -223.993608   -956.957423
PC33 -14303.453001  -6842.547121 -22964.306497   -959.897152
PC34  -9262.820150 -14390.973867  22032.701146   -512.233479
PC35  26499.095639  -6863.300928   5514.670281     51.285145
PC36  20408.269581  15698.646860 -10727.379407   -835.854660
PC37  -4495.433501  18725.333791  20198.755645   -915.723490
PC38  -6697.469511  26214.702653 -32273.785585    197.409379
PC39 -21966.156906  23271.728380  27365.601425     34.336254
PC40 -19225.395619  37532.259126   2519.534968    227.526694
PC41 -18390.387194  12886.849533 -16517.474811   -916.816395
PC42  -1694.542021 -22852.403557 -15881.621098   -932.798767
PC43 -24554.222006  -5671.813688  11960.706424   -953.763527
PC44  12452.467321 -15306.945609  19740.381240    501.887793
PC45  17175.315705  -2493.664088 -21847.664269    629.871388
PC46  11939.353076  24473.386754   5994.920573    -66.616374
PJ01 -29158.226743  29977.139996  -1072.356883     91.935827
PJ02 -26379.855054  25073.963141  26281.068575     -0.409191
PJ03 -31972.722107  17948.470593 -16054.839559     -9.624004
EOF
